TOMORROW-S1             
1 60479U 24149M   26068.72470524  .00008620  00000+0  28856-3 0  9996
2 60479  97.3791 149.6044 0001819 207.2040 152.9106 15.31198362 86867
STARLINK-34751          
1 65338U 25189R   26068.66323457  .00023720  00000+0  81045-3 0  9992
2 65338  53.1582 206.7976 0001088  66.0869 294.0246 15.30199121 31104
