[{"OBJECT_NAME":"TOMORROW-S1","OBJECT_ID":"2024-149M","EPOCH":"2026-03-09T17:23:34.533600","MEAN_MOTION":15.31198363,"ECCENTRICITY":0.00018188,"INCLINATION":97.3791,"RA_OF_ASC_NODE":149.6044,"ARG_OF_PERICENTER":207.204,"MEAN_ANOMALY":152.9106,"EPHEMERIS_TYPE":0,"CLASSIFICATION_TYPE":"U","NORAD_CAT_ID":60479,"ELEMENT_SET_NO":999,"REV_AT_EPOCH":8686,"BSTAR":0.0002885603,"MEAN_MOTION_DOT":8.62e-5,"MEAN_MOTION_DDOT":0},{"OBJECT_NAME":"STARLINK-34751","OBJECT_ID":"2025-189R","EPOCH":"2026-03-09T15:55:03.467712","MEAN_MOTION":15.30199121,"ECCENTRICITY":0.0001088,"INCLINATION":53.1582,"RA_OF_ASC_NODE":206.7976,"ARG_OF_PERICENTER":66.0869,"MEAN_ANOMALY":294.0246,"EPHEMERIS_TYPE":0,"CLASSIFICATION_TYPE":"U","NORAD_CAT_ID":65338,"ELEMENT_SET_NO":999,"REV_AT_EPOCH":3110,"BSTAR":0.00081044971,"MEAN_MOTION_DOT":0.0002372,"MEAN_MOTION_DDOT":0}]
